{"type":"FeatureCollection","features":[{"type":"Feature","geometry":{"type":"MultiPolygon","coordinates":[[[[114.204971,1.407545],[114.153831,1.384724],[114.152161,1.382885],[114.137711,1.21268],[114.140587,1.206963],[114.119576,1.156378],[114.081848,1.161817],[114.047989,1.132663],[113.987701,1.144419],[113.938293,1.06126],[113.890594,1.038177],[113.919106,0.982897],[113.918137,0.979328],[113.880379,0.925269],[113.881111,0.883935],[113.926888,0.843717],[113.889313,0.783661],[113.898712,0.745404],[113.843277,0.702985],[113.842865,0.665291],[113.738724,0.544104],[113.672333,0.505215],[113.656631,0.438104],[113.587898,0.405597],[113.513199,0.320208],[113.437424,0.265147],[113.322639,0.27277],[113.269646,0.237864],[113.326904,0.178387],[113.405693,0.138666],[113.424301,0.01172],[113.333961,-0.188953],[113.221898,-0.340063],[113.260048,-0.386946],[113.265274,-0.432963],[113.229156,-0.474128],[113.131927,-0.450832],[113.059326,-0.500177],[113.032639,-0.487246],[112.888245,-0.5348],[112.852104,-0.568786],[112.754036,-0.568419],[112.731289,-0.624087],[112.688972,-0.652312],[112.634483,-0.654555],[112.595421,-0.687516],[112.538094,-0.699546],[112.449364,-0.679314],[112.302696,-0.732715],[112.244011,-0.634966],[112.199463,-0.614976],[112.107172,-0.688612],[112.039477,-0.702334],[111.999829,-0.72664],[112.000516,-0.782459],[111.954544,-0.818529],[111.906593,-0.775333],[111.906021,-0.869211],[111.832191,-0.914291],[111.733315,-0.923568],[111.717972,-0.945031],[111.624825,-0.984459],[111.623978,-1.031922],[111.570969,-1.075839],[111.55349,-1.117017],[111.571541,-1.14573],[111.560516,-1.210964],[111.494591,-1.221164],[111.489815,-1.279386],[111.417722,-1.249998],[111.348486,-1.285983],[111.261569,-1.387914],[111.21228,-1.411965],[111.188332,-1.490991],[111.157883,-1.470608],[111.111994,-1.487714],[111.123306,-1.544106],[111.077415,-1.562303],[111.039024,-1.539377],[110.980354,-1.538065],[110.94973,-1.578825],[110.912148,-1.583816],[110.855583,-1.633108],[110.857147,-1.667797],[110.913635,-1.717645],[110.974731,-1.667775],[111.001907,-1.691915],[111.018458,-1.760494],[110.971994,-1.812174],[110.969867,-1.866475],[110.995881,-1.900829],[110.978226,-1.95324],[111.046007,-1.95951],[111.085697,-2.007968],[111.049252,-2.069462],[111.077835,-2.153214],[111.0326,-2.247475],[111.068977,-2.298775],[111.104942,-2.433837],[111.105408,-2.484712],[111.136215,-2.611802],[111.118469,-2.653161],[111.16468,-2.672753],[111.166374,-2.710246],[111.138382,-2.7492],[111.063812,-2.785731],[111.010681,-2.794681],[110.967964,-2.856296],[110.886566,-2.874295],[110.797234,-2.912337],[110.747238,-2.952027],[110.7221,-3.00548],[110.6576,-3.03914],[110.6336,-2.98782],[110.6128,-2.88084],[110.5698,-2.84296],[110.525,-2.8458],[110.4068,-2.90381],[110.2995,-2.99725],[110.2586,-2.96867],[110.22,-2.88738],[110.2455,-2.85244],[110.2533,-2.76538],[110.2148,-2.74003],[110.2275,-2.70112],[110.2077,-2.64912],[110.1552,-2.63672],[110.1941,-2.52439],[110.1754,-2.45821],[110.147,-2.41627],[110.137,-2.32053],[110.0881,-2.24693],[110.0796,-2.18218],[110.1071,-2.13802],[110.1123,-2.08129],[110.0942,-1.98356],[110.0508,-1.92568],[109.9995,-1.90751],[109.9017,-1.83527],[109.9364,-1.78015],[109.9808,-1.74154],[110.0278,-1.67139],[110.033,-1.53186],[110.0617,-1.46419],[110.0684,-1.37387],[110.0528,-1.33292],[109.9916,-1.27373],[109.9618,-1.27656],[109.9111,-1.19229],[109.9482,-1.12206],[109.8486,-1.09025],[109.774,-1.04261],[109.761,-0.99262],[109.7275,-0.98058],[109.6514,-0.99955],[109.6433,-0.98207],[109.6117,-0.9719],[109.5843,-0.90008],[109.4326,-0.85378],[109.4049,-0.93135],[109.2996,-0.90027],[109.239,-0.80772],[109.245,-0.6637],[109.3207,-0.70762],[109.3963,-0.70803],[109.4654,-0.75414],[109.5308,-0.7396],[109.6311,-0.80334],[109.6335,-0.75171],[109.5958,-0.70947],[109.6738,-0.69369],[109.6652,-0.68153],[109.5847,-0.68744],[109.588,-0.66158],[109.5804,-0.65017],[109.5137,-0.64136],[109.4929,-0.62301],[109.4754,-0.61456],[109.4189,-0.6312],[109.3774,-0.57662],[109.2616,-0.60186],[109.2036,-0.55585],[109.163,-0.57835],[109.1282,-0.54665],[109.1098,-0.49835],[109.0966,-0.36251],[109.1129,-0.33999],[109.088,-0.27689],[109.1198,-0.2587],[109.1392,-0.23692],[109.1936,-0.22256],[109.1786,-0.19141],[109.188,-0.1414],[109.1735,-0.0609],[109.1573,-0.04261],[109.1731,0.07643],[109.1372,0.13194],[109.1174,0.21137],[109.0713,0.26328],[108.9632,0.31588],[108.9116,0.3217],[108.9387,0.38147],[108.9285,0.46134],[108.906,0.47842],[108.9224,0.56979],[108.9105,0.6628],[108.8679,0.71447],[108.872,0.78082],[108.8361,0.8233],[108.9103,0.8683],[108.9553,0.91943],[108.9756,1.00491],[108.9609,1.05662],[108.909,1.15188],[108.9456,1.16483],[108.9905,1.27642],[109.0304,1.32147],[109.0512,1.3894],[109.0411,1.44732],[109.0592,1.51973],[109.1307,1.5864],[109.2182,1.62901],[109.2566,1.66235],[109.289,1.74958],[109.3391,1.82919],[109.351,1.87508],[109.3308,1.92828],[109.3548,1.94679],[109.4278,1.94949],[109.4634,1.97743],[109.5912,1.9991],[109.575401,1.935634],[109.538345,1.914961],[109.557236,1.853854],[109.599236,1.810235],[109.655716,1.798155],[109.680099,1.767307],[109.663406,1.729619],[109.656738,1.632067],[109.792725,1.499817],[109.830124,1.424426],[109.934013,1.41802],[109.963875,1.386595],[109.974075,1.308176],[110.04628,1.26457],[110.107086,1.195396],[110.18927,1.178725],[110.206352,1.121725],[110.241669,1.110338],[110.275497,1.050082],[110.277237,0.996843],[110.402931,0.983606],[110.406189,0.95233],[110.482376,0.881211],[110.570297,0.85522],[110.714661,0.905033],[110.764175,0.929846],[110.808174,0.911536],[110.909386,0.955599],[111.041229,0.997548],[111.107147,1.027512],[111.308907,1.029509],[111.356682,1.035687],[111.408791,1.019521],[111.482697,1.019521],[111.552612,1.039497],[111.648499,1.013529],[111.678459,1.029509],[111.733223,1.011347],[111.762688,1.021632],[111.857185,1.002252],[111.890572,1.067516],[111.957893,1.126365],[112.128143,1.142361],[112.157951,1.205362],[112.174301,1.306329],[112.205956,1.339872],[112.222633,1.390472],[112.194519,1.410984],[112.222755,1.457148],[112.274704,1.469801],[112.320335,1.504941],[112.42939,1.524687],[112.480782,1.576551],[112.650337,1.568992],[112.672386,1.554553],[112.770721,1.562787],[112.8377,1.537369],[112.882736,1.585829],[112.92025,1.569736],[113.004318,1.569513],[113.063759,1.536398],[113.030952,1.472237],[112.982132,1.451602],[112.975845,1.40725],[113.114716,1.425778],[113.172112,1.378784],[113.260704,1.391758],[113.318687,1.378034],[113.419991,1.284333],[113.532501,1.322036],[113.581009,1.298786],[113.621231,1.223979],[113.659279,1.219476],[113.699623,1.258209],[113.791924,1.292841],[113.826965,1.331964],[113.822708,1.372153],[113.875908,1.3915],[113.979195,1.451969],[114.019402,1.444113],[114.088257,1.462753],[114.141617,1.46217],[114.204971,1.407545]]],[[[109.6986,-0.99995],[109.7573,-1.00449],[109.7685,-1.12241],[109.7808,-1.1439],[109.656,-1.22133],[109.543,-1.27298],[109.4999,-1.3094],[109.4137,-1.28393],[109.4512,-1.09149],[109.4502,-1.03477],[109.4866,-0.97418],[109.554,-1.00326],[109.5886,-0.98292],[109.637,-0.98789],[109.6436,-1.01161],[109.6721,-1.02069],[109.6986,-0.99995]]],[[[108.8904,-1.53854],[108.9347,-1.54254],[108.982,-1.59809],[108.953,-1.64399],[108.8571,-1.67404],[108.8187,-1.56793],[108.8773,-1.56155],[108.8904,-1.53854]]],[[[109.0795,-0.27425],[109.0473,-0.25387],[109.0858,-0.20704],[109.1542,-0.20969],[109.1176,-0.25515],[109.0795,-0.27425]]],[[[109.5,-0.68043],[109.4729,-0.64078],[109.4714,-0.62425],[109.4933,-0.6268],[109.5118,-0.64379],[109.5446,-0.65463],[109.5821,-0.65385],[109.583,-0.68458],[109.5408,-0.70285],[109.5,-0.68043]]],[[[109.1333,-0.0912],[109.1641,-0.09208],[109.1842,-0.1367],[109.1752,-0.19458],[109.1264,-0.12726],[109.1333,-0.0912]]],[[[110.0675,-2.71332],[110.108,-2.6754],[110.1238,-2.74506],[110.0769,-2.76368],[110.0675,-2.71332]]]]},"properties":{"nama":"Kalimantan Barat","sumber":"Peta Dasar BAKOSURTANAL Skala 1:250.000 (via github.com/superpikar/indonesia-geojson)"}}]}